ONEWEB-0475             
1 51655U 22012AK  24025.95660685  .00000046  00000+0  85772-4 0  9999
2 51655  87.9227 179.5311 0001906 107.4917 252.6423 13.17648552 99982
ONEWEB-0490             
1 54113U 22138A   24025.80092665 -.00001674  00000+0 -42132-2 0  9992
2 54113  87.9197 118.8338 0002150 101.2452 258.8923 13.19731047 61631
ONEWEB-0492             
1 54114U 22138B   24025.75039061  .00000072  00000+0  14787-3 0  9993
2 54114  87.9202 118.8393 0002150 101.5921 258.5453 13.19724962 61637
ONEWEB-0495             
1 54115U 22138C   24025.80409569 -.00000026  00000+0 -97948-4 0  9996
2 54115  87.9203 118.8401 0002261 109.3301 250.8076 13.19724172 61628
ONEWEB-0497             
1 54116U 22138D   24025.81673561  .00000012  00000+0 -28959-5 0  9994
2 54116  87.9198 118.8319 0001938 101.9687 258.1663 13.19724514 61617
ONEWEB-0500             
1 54118U 22138F   24025.80252565  .00000009  00000+0 -90819-5 0  9992
2 54118  87.9199 118.8301 0001896 102.5593 257.5752 13.19724985 61633
